CCSDS_OMM_VERS = 2.0
CREATION_DATE  = 
ORIGINATOR     = 

OBJECT_NAME    = CZ-2C R/B
OBJECT_ID      = 2022-132E
CENTER_NAME    = EARTH
REF_FRAME      = TEME
TIME_SYSTEM    = UTC
MEAN_ELEMENT_THEORY = SGP/SGP4

EPOCH          = 2026-02-03T12:13:34.770144
MEAN_MOTION    = 15.58889400
ECCENTRICITY   = .00174354
INCLINATION    = 97.2952
RA_OF_ASC_NODE = 36.8722
ARG_OF_PERICENTER = 209.6121
MEAN_ANOMALY   = 150.4150

EPHEMERIS_TYPE = 0
CLASSIFICATION_TYPE = U
NORAD_CAT_ID   = 54039
ELEMENT_SET_NO = 999
REV_AT_EPOCH   = 18504
BSTAR          = .48276585E-3
MEAN_MOTION_DOT = .37658E-3
MEAN_MOTION_DDOT = 0

CCSDS_OMM_VERS = 2.0
CREATION_DATE  = 
ORIGINATOR     = 

OBJECT_NAME    = GSLV R/B
OBJECT_ID      = 2022-138AN
CENTER_NAME    = EARTH
REF_FRAME      = TEME
TIME_SYSTEM    = UTC
MEAN_ELEMENT_THEORY = SGP/SGP4

EPOCH          = 2026-02-03T10:05:55.671936
MEAN_MOTION    = 14.96505464
ECCENTRICITY   = .00193286
INCLINATION    = 87.3861
RA_OF_ASC_NODE = 177.8299
ARG_OF_PERICENTER = 276.9764
MEAN_ANOMALY   = 82.9269

EPHEMERIS_TYPE = 0
CLASSIFICATION_TYPE = U
NORAD_CAT_ID   = 54149
ELEMENT_SET_NO = 999
REV_AT_EPOCH   = 17880
BSTAR          = .31562012E-3
MEAN_MOTION_DOT = .3625E-4
MEAN_MOTION_DDOT = 0

CCSDS_OMM_VERS = 2.0
CREATION_DATE  = 
ORIGINATOR     = 

OBJECT_NAME    = XRISM
OBJECT_ID      = 2023-137A
CENTER_NAME    = EARTH
REF_FRAME      = TEME
TIME_SYSTEM    = UTC
MEAN_ELEMENT_THEORY = SGP/SGP4

EPOCH          = 2026-02-03T13:27:08.775072
MEAN_MOTION    = 15.11059885
ECCENTRICITY   = .00079948
INCLINATION    = 31.0019
RA_OF_ASC_NODE = 144.3337
ARG_OF_PERICENTER = 57.5140
MEAN_ANOMALY   = 302.6270

EPHEMERIS_TYPE = 0
CLASSIFICATION_TYPE = U
NORAD_CAT_ID   = 57800
ELEMENT_SET_NO = 999
REV_AT_EPOCH   = 13262
BSTAR          = .4175829E-3
MEAN_MOTION_DOT = .7261E-4
MEAN_MOTION_DDOT = 0

CCSDS_OMM_VERS = 2.0
CREATION_DATE  = 
ORIGINATOR     = 

OBJECT_NAME    = ACS3
OBJECT_ID      = 2024-077B
CENTER_NAME    = EARTH
REF_FRAME      = TEME
TIME_SYSTEM    = UTC
MEAN_ELEMENT_THEORY = SGP/SGP4

EPOCH          = 2026-02-03T10:07:07.491072
MEAN_MOTION    = 13.88174077
ECCENTRICITY   = .00454164
INCLINATION    = 97.2259
RA_OF_ASC_NODE = 343.2363
ARG_OF_PERICENTER = 186.1249
MEAN_ANOMALY   = 173.9364

EPHEMERIS_TYPE = 0
CLASSIFICATION_TYPE = U
NORAD_CAT_ID   = 59588
ELEMENT_SET_NO = 999
REV_AT_EPOCH   = 8944
BSTAR          = .17781479E-1
MEAN_MOTION_DOT = .21438E-3
MEAN_MOTION_DDOT = 0

CCSDS_OMM_VERS = 2.0
CREATION_DATE  = 
ORIGINATOR     = 

OBJECT_NAME    = SZ-21 MODULE
OBJECT_ID      = 2025-246C
CENTER_NAME    = EARTH
REF_FRAME      = TEME
TIME_SYSTEM    = UTC
MEAN_ELEMENT_THEORY = SGP/SGP4

EPOCH          = 2026-02-03T09:47:03.857856
MEAN_MOTION    = 15.65950990
ECCENTRICITY   = .00032432
INCLINATION    = 41.4756
RA_OF_ASC_NODE = 53.9721
ARG_OF_PERICENTER = 270.9806
MEAN_ANOMALY   = 89.0663

EPHEMERIS_TYPE = 0
CLASSIFICATION_TYPE = U
NORAD_CAT_ID   = 66515
ELEMENT_SET_NO = 999
REV_AT_EPOCH   = 1269
BSTAR          = .32676953E-3
MEAN_MOTION_DOT = .34121E-3
MEAN_MOTION_DDOT = 0

