CZ-2C R/B               
1 54039U 22132E   26034.50943021  .00037658  00000+0  48277-3 0  9999
2 54039  97.2952  36.8722 0017435 209.6121 150.4150 15.58889400185048
GSLV R/B                
1 54149U 22138AN  26034.42078324  .00003625  00000+0  31562-3 0  9999
2 54149  87.3861 177.8299 0019328 276.9764  82.9269 14.96505464178809
XRISM                   
1 57800U 23137A   26034.56051823  .00007261  00000+0  41758-3 0  9994
2 57800  31.0019 144.3337 0007994  57.5140 302.6270 15.11059885132629
ACS3                    
1 59588U 24077B   26034.42161448  .00021438  00000+0  17781-1 0  9992
2 59588  97.2259 343.2363 0045416 186.1249 173.9364 13.88174077 89440
SZ-21 MODULE            
1 66515U 25246C   26034.40768354  .00034121  00000+0  32677-3 0  9992
2 66515  41.4756  53.9721 0003243 270.9806  89.0663 15.65950990 12692
